{
  "type": "FeatureCollection",
  "features": [
    {
      "type": "Feature",
      "properties": {
        "norad_id": 43260,
        "name": "GAOFEN-1 03",
        "group": "resource",
        "lat": 47.94024557761925,
        "lon": -124.10737521373406,
        "alt_km": 637.6358906014466,
        "timestamp": "2025-12-15T04:01:20.100402+00:00",
        "meta_object_name": "GAOFEN-1 03",
        "meta_object_id": "2018-031B",
        "meta_epoch": "2025-12-14T07:54:40.165056",
        "meta_mean_motion": 14.76440973,
        "meta_eccentricity": 0.0001897,
        "meta_inclination": 98.0797,
        "meta_ra_of_asc_node": 45.9963,
        "meta_arg_of_pericenter": 314.6184,
        "meta_mean_anomaly": 45.487,
        "meta_ephemeris_type": 0,
        "meta_classification_type": "U",
        "meta_norad_cat_id": 43260,
        "meta_element_set_no": 999,
        "meta_rev_at_epoch": 41541,
        "meta_bstar": 0.00019194484,
        "meta_mean_motion_dot": 1.283e-05,
        "meta_mean_motion_ddot": 0,
        "tle_line1": "1 43260U 18031B   25348.32963154  .00001283  00000+0  19194-3 0  9993",
        "tle_line2": "2 43260  98.0797  45.9963 0001897 314.6184  45.4870 14.76440973415413"
      },
      "geometry": {
        "type": "Point",
        "coordinates": [
          -124.10737521373406,
          47.94024557761925
        ]
      }
    },
    {
      "type": "Feature",
      "properties": {
        "norad_id": 43262,
        "name": "GAOFEN-1 04",
        "group": "resource",
        "lat": -77.81925155728446,
        "lon": -174.15749880919276,
        "alt_km": 648.4952232309297,
        "timestamp": "2025-12-15T04:01:20.100412+00:00",
        "meta_object_name": "GAOFEN-1 04",
        "meta_object_id": "2018-031D",
        "meta_epoch": "2025-12-14T07:19:34.990176",
        "meta_mean_motion": 14.76455337,
        "meta_eccentricity": 9.938e-05,
        "meta_inclination": 98.0807,
        "meta_ra_of_asc_node": 46.1413,
        "meta_arg_of_pericenter": 58.8443,
        "meta_mean_anomaly": 301.2864,
        "meta_ephemeris_type": 0,
        "meta_classification_type": "U",
        "meta_norad_cat_id": 43262,
        "meta_element_set_no": 999,
        "meta_rev_at_epoch": 41540,
        "meta_bstar": 0.00020714923,
        "meta_mean_motion_dot": 1.39e-05,
        "meta_mean_motion_ddot": 0,
        "tle_line1": "1 43262U 18031D   25348.30526609  .00001390  00000+0  20715-3 0  9993",
        "tle_line2": "2 43262  98.0807  46.1413 0000993  58.8443 301.2864 14.76455337415406"
      },
      "geometry": {
        "type": "Point",
        "coordinates": [
          -174.15749880919276,
          -77.81925155728446
        ]
      }
    },
    {
      "type": "Feature",
      "properties": {
        "norad_id": 43437,
        "name": "SENTINEL-3B",
        "group": "resource",
        "lat": -6.448835129400341,
        "lon": 55.3013657434358,
        "alt_km": 806.6692568185908,
        "timestamp": "2025-12-15T04:01:20.100423+00:00",
        "meta_object_name": "SENTINEL-3B",
        "meta_object_id": "2018-039A",
        "meta_epoch": "2025-12-14T04:29:20.674176",
        "meta_mean_motion": 14.26734637,
        "meta_eccentricity": 0.0001625,
        "meta_inclination": 98.6267,
        "meta_ra_of_asc_node": 53.3518,
        "meta_arg_of_pericenter": 100.163,
        "meta_mean_anomaly": 259.9734,
        "meta_ephemeris_type": 0,
        "meta_classification_type": "U",
        "meta_norad_cat_id": 43437,
        "meta_element_set_no": 999,
        "meta_rev_at_epoch": 39774,
        "meta_bstar": 9.9514822e-05,
        "meta_mean_motion_dot": 1.97e-06,
        "meta_mean_motion_ddot": 0,
        "tle_line1": "1 43437U 18039A   25348.18704484  .00000197  00000+0  99515-4 0  9999",
        "tle_line2": "2 43437  98.6267  53.3518 0001625 100.1630 259.9734 14.26734637397743"
      },
      "geometry": {
        "type": "Point",
        "coordinates": [
          55.3013657434358,
          -6.448835129400341
        ]
      }
    },
    {
      "type": "Feature",
      "properties": {
        "norad_id": 43461,
        "name": "GAOFEN-5 01",
        "group": "resource",
        "lat": -79.30650050054028,
        "lon": 3.9542406867543627,
        "alt_km": 698.8182294130183,
        "timestamp": "2025-12-15T04:01:20.100433+00:00",
        "meta_object_name": "GAOFEN-5 01",
        "meta_object_id": "2018-043A",
        "meta_epoch": "2025-12-14T03:44:18.706848",
        "meta_mean_motion": 14.60411641,
        "meta_eccentricity": 8.626e-05,
        "meta_inclination": 98.4328,
        "meta_ra_of_asc_node": 311.1477,
        "meta_arg_of_pericenter": 334.3515,
        "meta_mean_anomaly": 25.7642,
        "meta_ephemeris_type": 0,
        "meta_classification_type": "U",
        "meta_norad_cat_id": 43461,
        "meta_element_set_no": 999,
        "meta_rev_at_epoch": 40468,
        "meta_bstar": 0.00013963559,
        "meta_mean_motion_dot": 6.27e-06,
        "meta_mean_motion_ddot": 0,
        "tle_line1": "1 43461U 18043A   25348.15577207  .00000627  00000+0  13964-3 0  9990",
        "tle_line2": "2 43461  98.4328 311.1477 0000862 334.3515  25.7642 14.60411641404684"
      },
      "geometry": {
        "type": "Point",
        "coordinates": [
          3.9542406867543627,
          -79.30650050054028
        ]
      }
    },
    {
      "type": "Feature",
      "properties": {
        "norad_id": 43484,
        "name": "GAOFEN-6",
        "group": "resource",
        "lat": 52.20948471669672,
        "lon": 43.16670511742927,
        "alt_km": 626.0923080217372,
        "timestamp": "2025-12-15T04:01:20.100444+00:00",
        "meta_object_name": "GAOFEN-6",
        "meta_object_id": "2018-048A",
        "meta_epoch": "2025-12-14T08:16:03.096192",
        "meta_mean_motion": 14.7657216,
        "meta_eccentricity": 0.00131526,
        "meta_inclination": 97.8029,
        "meta_ra_of_asc_node": 52.5572,
        "meta_arg_of_pericenter": 59.1144,
        "meta_mean_anomaly": 301.1358,
        "meta_ephemeris_type": 0,
        "meta_classification_type": "U",
        "meta_norad_cat_id": 43484,
        "meta_element_set_no": 999,
        "meta_rev_at_epoch": 40611,
        "meta_bstar": 0.0002408068,
        "meta_mean_motion_dot": 1.633e-05,
        "meta_mean_motion_ddot": 0,
        "tle_line1": "1 43484U 18048A   25348.34448028  .00001633  00000+0  24081-3 0  9999",
        "tle_line2": "2 43484  97.8029  52.5572 0013152  59.1144 301.1358 14.76572160406114"
      },
      "geometry": {
        "type": "Point",
        "coordinates": [
          43.16670511742927,
          52.20948471669672
        ]
      }
    },
    {
      "type": "Feature",
      "properties": {
        "norad_id": 43585,
        "name": "GAOFEN-11 01",
        "group": "resource",
        "lat": 45.59463208949159,
        "lon": -120.54818263666175,
        "alt_km": 417.69413587937106,
        "timestamp": "2025-12-15T04:01:20.100454+00:00",
        "meta_object_name": "GAOFEN-11 01",
        "meta_object_id": "2018-063A",
        "meta_epoch": "2025-12-14T07:17:41.293824",
        "meta_mean_motion": 15.49283618,
        "meta_eccentricity": 0.00042588,
        "meta_inclination": 97.1563,
        "meta_ra_of_asc_node": 51.225,
        "meta_arg_of_pericenter": 305.7541,
        "meta_mean_anomaly": 54.3314,
        "meta_ephemeris_type": 0,
        "meta_classification_type": "U",
        "meta_norad_cat_id": 43585,
        "meta_element_set_no": 999,
        "meta_rev_at_epoch": 41166,
        "meta_bstar": 0.0004045421,
        "meta_mean_motion_dot": 0.00022054,
        "meta_mean_motion_ddot": 0,
        "tle_line1": "1 43585U 18063A   25348.30395016  .00022054  00000+0  40454-3 0  9994",
        "tle_line2": "2 43585  97.1563  51.2250 0004258 305.7541  54.3314 15.49283618411662"
      },
      "geometry": {
        "type": "Point",
        "coordinates": [
          -120.54818263666175,
          45.59463208949159
        ]
      }
    },
    {
      "type": "Feature",
      "properties": {
        "norad_id": 43613,
        "name": "ICESAT-2",
        "group": "resource",
        "lat": 46.25928277891544,
        "lon": -120.70523384581928,
        "alt_km": 476.9285596705795,
        "timestamp": "2025-12-15T04:01:20.100465+00:00",
        "meta_object_name": "ICESAT-2",
        "meta_object_id": "2018-070A",
        "meta_epoch": "2025-12-14T05:49:11.172288",
        "meta_mean_motion": 15.28287648,
        "meta_eccentricity": 0.00024863,
        "meta_inclination": 92.0048,
        "meta_ra_of_asc_node": 241.1429,
        "meta_arg_of_pericenter": 138.2582,
        "meta_mean_anomaly": 221.8858,
        "meta_ephemeris_type": 0,
        "meta_classification_type": "U",
        "meta_norad_cat_id": 43613,
        "meta_element_set_no": 999,
        "meta_rev_at_epoch": 40421,
        "meta_bstar": 0.00051011462,
        "meta_mean_motion_dot": 0.00014059,
        "meta_mean_motion_ddot": 0,
        "tle_line1": "1 43613U 18070A   25348.24249042  .00014059  00000+0  51011-3 0  9991",
        "tle_line2": "2 43613  92.0048 241.1429 0002486 138.2582 221.8858 15.28287648404210"
      },
      "geometry": {
        "type": "Point",
        "coordinates": [
          -120.70523384581928,
          46.25928277891544
        ]
      }
    }
  ]
}